{
  "type": "FeatureCollection",
  "features": [
    {
      "type": "Feature",
      "properties": {
        "norad_id": 33412,
        "name": "COSMO-SKYMED 3",
        "group": "resource",
        "lat": 41.77656528494751,
        "lon": 30.786639700918997,
        "alt_km": 535.5783159623306,
        "timestamp": "2025-12-19T04:59:47.957293+00:00",
        "meta_object_name": "COSMO-SKYMED 3",
        "meta_object_id": "2008-054A",
        "meta_epoch": "2025-12-18T22:00:23.376672",
        "meta_mean_motion": 15.05414172,
        "meta_eccentricity": 0.00167347,
        "meta_inclination": 97.8473,
        "meta_ra_of_asc_node": 203.413,
        "meta_arg_of_pericenter": 151.3429,
        "meta_mean_anomaly": 208.872,
        "meta_ephemeris_type": 0,
        "meta_classification_type": "U",
        "meta_norad_cat_id": 33412,
        "meta_element_set_no": 999,
        "meta_rev_at_epoch": 92980,
        "meta_bstar": 0.00032291329,
        "meta_mean_motion_dot": 4.582e-05,
        "meta_mean_motion_ddot": 0,
        "tle_line1": "1 33412U 08054A   25352.91693723  .00004582  00000+0  32291-3 0  9995",
        "tle_line2": "2 33412  97.8473 203.4130 0016734 151.3429 208.8720 15.05414172929807"
      },
      "geometry": {
        "type": "Point",
        "coordinates": [
          30.786639700918997,
          41.77656528494751
        ]
      }
    },
    {
      "type": "Feature",
      "properties": {
        "norad_id": 33446,
        "name": "YAOGAN-4",
        "group": "resource",
        "lat": -48.166331848867664,
        "lon": -67.8106111105838,
        "alt_km": 618.5783914388712,
        "timestamp": "2025-12-19T04:59:47.957304+00:00",
        "meta_object_name": "YAOGAN-4",
        "meta_object_id": "2008-061A",
        "meta_epoch": "2025-12-18T19:29:52.486656",
        "meta_mean_motion": 14.82699473,
        "meta_eccentricity": 0.00132112,
        "meta_inclination": 97.9189,
        "meta_ra_of_asc_node": 282.8521,
        "meta_arg_of_pericenter": 302.0328,
        "meta_mean_anomaly": 57.9601,
        "meta_ephemeris_type": 0,
        "meta_classification_type": "U",
        "meta_norad_cat_id": 33446,
        "meta_element_set_no": 999,
        "meta_rev_at_epoch": 91893,
        "meta_bstar": 0.00013226403,
        "meta_mean_motion_dot": 1.015e-05,
        "meta_mean_motion_ddot": 0,
        "tle_line1": "1 33446U 08061A   25352.81241304  .00001015  00000+0  13226-3 0  9998",
        "tle_line2": "2 33446  97.9189 282.8521 0013211 302.0328  57.9601 14.82699473918930"
      },
      "geometry": {
        "type": "Point",
        "coordinates": [
          -67.8106111105838,
          -48.166331848867664
        ]
      }
    },
    {
      "type": "Feature",
      "properties": {
        "norad_id": 33492,
        "name": "GOSAT (IBUKI)",
        "group": "resource",
        "lat": 10.883018773257001,
        "lon": 100.15701119655625,
        "alt_km": 670.3853173888538,
        "timestamp": "2025-12-19T04:59:47.957316+00:00",
        "meta_object_name": "GOSAT (IBUKI)",
        "meta_object_id": "2009-002A",
        "meta_epoch": "2025-12-18T20:45:53.409600",
        "meta_mean_motion": 14.67537026,
        "meta_eccentricity": 9.928e-05,
        "meta_inclination": 98.0772,
        "meta_ra_of_asc_node": 101.3834,
        "meta_arg_of_pericenter": 99.7026,
        "meta_mean_anomaly": 260.4291,
        "meta_ephemeris_type": 0,
        "meta_classification_type": "U",
        "meta_norad_cat_id": 33492,
        "meta_element_set_no": 999,
        "meta_rev_at_epoch": 90501,
        "meta_bstar": 0.0001195553,
        "meta_mean_motion_dot": 6.3e-06,
        "meta_mean_motion_ddot": 0,
        "tle_line1": "1 33492U 09002A   25352.86520150  .00000630  00000+0  11956-3 0  9999",
        "tle_line2": "2 33492  98.0772 101.3834 0000992  99.7026 260.4291 14.67537026905019"
      },
      "geometry": {
        "type": "Point",
        "coordinates": [
          100.15701119655625,
          10.883018773257001
        ]
      }
    },
    {
      "type": "Feature",
      "properties": {
        "norad_id": 35681,
        "name": "DEIMOS-1",
        "group": "resource",
        "lat": -78.27124103092794,
        "lon": -67.24935268257116,
        "alt_km": 654.4290343272887,
        "timestamp": "2025-12-19T04:59:47.957326+00:00",
        "meta_object_name": "DEIMOS-1",
        "meta_object_id": "2009-041A",
        "meta_epoch": "2025-12-18T22:55:54.793056",
        "meta_mean_motion": 14.74962914,
        "meta_eccentricity": 0.00026414,
        "meta_inclination": 97.7141,
        "meta_ra_of_asc_node": 153.2689,
        "meta_arg_of_pericenter": 69.7703,
        "meta_mean_anomaly": 290.3791,
        "meta_ephemeris_type": 0,
        "meta_classification_type": "U",
        "meta_norad_cat_id": 35681,
        "meta_element_set_no": 999,
        "meta_rev_at_epoch": 88031,
        "meta_bstar": 0.00012056233,
        "meta_mean_motion_dot": 7.63e-06,
        "meta_mean_motion_ddot": 0,
        "tle_line1": "1 35681U 09041A   25352.95549529  .00000763  00000+0  12056-3 0  9994",
        "tle_line2": "2 35681  97.7141 153.2689 0002641  69.7703 290.3791 14.74962914880311"
      },
      "geometry": {
        "type": "Point",
        "coordinates": [
          -67.24935268257116,
          -78.27124103092794
        ]
      }
    },
    {
      "type": "Feature",
      "properties": {
        "norad_id": 35682,
        "name": "DUBAISAT-1",
        "group": "resource",
        "lat": -8.067428205104749,
        "lon": -57.34636388913568,
        "alt_km": 651.8713470003013,
        "timestamp": "2025-12-19T04:59:47.957337+00:00",
        "meta_object_name": "DUBAISAT-1",
        "meta_object_id": "2009-041B",
        "meta_epoch": "2025-12-18T21:37:53.882112",
        "meta_mean_motion": 14.74620478,
        "meta_eccentricity": 0.00092976,
        "meta_inclination": 97.9797,
        "meta_ra_of_asc_node": 123.4906,
        "meta_arg_of_pericenter": 292.4908,
        "meta_mean_anomaly": 67.5316,
        "meta_ephemeris_type": 0,
        "meta_classification_type": "U",
        "meta_norad_cat_id": 35682,
        "meta_element_set_no": 999,
        "meta_rev_at_epoch": 87852,
        "meta_bstar": 0.00015693888,
        "meta_mean_motion_dot": 9.96e-06,
        "meta_mean_motion_ddot": 0,
        "tle_line1": "1 35682U 09041B   25352.90131808  .00000996  00000+0  15694-3 0  9996",
        "tle_line2": "2 35682  97.9797 123.4906 0009297 292.4908  67.5316 14.74620478878521"
      },
      "geometry": {
        "type": "Point",
        "coordinates": [
          -57.34636388913568,
          -8.067428205104749
        ]
      }
    },
    {
      "type": "Feature",
      "properties": {
        "norad_id": 35931,
        "name": "OCEANSAT-2",
        "group": "resource",
        "lat": 60.888805549276654,
        "lon": -21.896165466319843,
        "alt_km": 879.4654677359604,
        "timestamp": "2025-12-19T04:59:47.957347+00:00",
        "meta_object_name": "OCEANSAT-2",
        "meta_object_id": "2009-051A",
        "meta_epoch": "2025-12-18T23:33:19.372608",
        "meta_mean_motion": 13.99623418,
        "meta_eccentricity": 0.00160576,
        "meta_inclination": 98.2218,
        "meta_ra_of_asc_node": 352.9489,
        "meta_arg_of_pericenter": 28.6889,
        "meta_mean_anomaly": 331.5158,
        "meta_ephemeris_type": 0,
        "meta_classification_type": "U",
        "meta_norad_cat_id": 35931,
        "meta_element_set_no": 999,
        "meta_rev_at_epoch": 85412,
        "meta_bstar": -6.0544618e-05,
        "meta_mean_motion_dot": -1.26e-06,
        "meta_mean_motion_ddot": 0,
        "tle_line1": "1 35931U 09051A   25352.98147422 -.00000126  00000+0 -60545-4 0  9994",
        "tle_line2": "2 35931  98.2218 352.9489 0016057  28.6889 331.5158 13.99623418854125"
      },
      "geometry": {
        "type": "Point",
        "coordinates": [
          -21.896165466319843,
          60.888805549276654
        ]
      }
    },
    {
      "type": "Feature",
      "properties": {
        "norad_id": 35946,
        "name": "WORLDVIEW-2 (WV-2)",
        "group": "resource",
        "lat": -10.65990569172136,
        "lon": 65.81270772921793,
        "alt_km": 768.7601677200719,
        "timestamp": "2025-12-19T04:59:47.957358+00:00",
        "meta_object_name": "WORLDVIEW-2 (WV-2)",
        "meta_object_id": "2009-055A",
        "meta_epoch": "2025-12-18T22:21:56.095200",
        "meta_mean_motion": 14.37726626,
        "meta_eccentricity": 0.00049825,
        "meta_inclination": 98.4782,
        "meta_ra_of_asc_node": 63.9314,
        "meta_arg_of_pericenter": 55.5555,
        "meta_mean_anomaly": 304.6102,
        "meta_ephemeris_type": 0,
        "meta_classification_type": "U",
        "meta_norad_cat_id": 35946,
        "meta_element_set_no": 999,
        "meta_rev_at_epoch": 84974,
        "meta_bstar": 5.9786397e-05,
        "meta_mean_motion_dot": 1.36e-06,
        "meta_mean_motion_ddot": 0,
        "tle_line1": "1 35946U 09055A   25352.93189925  .00000136  00000+0  59786-4 0  9997",
        "tle_line2": "2 35946  98.4782  63.9314 0004982  55.5555 304.6102 14.37726626849748"
      },
      "geometry": {
        "type": "Point",
        "coordinates": [
          65.81270772921793,
          -10.65990569172136
        ]
      }
    }
  ]
}